GPS BIIR-2  (PRN 13)    
1 24876U 97035A   21039.26834482 -.00000006  00000-0  00000-0 0  9990
2 24876  55.4664 174.9507 0047267  57.5883 302.8237  2.00562413172743
GPS BIIR-4  (PRN 20)    
1 26360U 00025A   21039.46594851 -.00000042  00000-0  00000-0 0  9998
2 26360  53.6808  99.3524 0058079 165.4691 318.8823  2.00563363152067
GPS BIIR-5  (PRN 28)    
1 26407U 00040A   21039.59586240 -.00000008  00000-0  00000-0 0  9996
2 26407  55.8166 292.8413 0181980 282.3854 256.7157  2.00564342150746
GPS BIIR-8  (PRN 16)    
1 27663U 03005A   21039.42327102 -.00000008  00000-0  00000-0 0  9997
2 27663  55.8694 292.6426 0120075  36.3805 143.5413  2.00566902132102
GPS BIIR-9  (PRN 21)    
1 27704U 03010A   21039.62428032 -.00000056  00000-0  00000-0 0  9998
2 27704  54.7821  43.3622 0244341 291.3113 247.9230  2.00557832130909
GPS BIIR-10 (PRN 22)    
1 28129U 03058A   21039.46013348 -.00000044  00000-0  00000-0 0  9991
2 28129  53.4911 102.0230 0071496 299.4873  59.8583  2.00570568125586
GPS BIIR-11 (PRN 19)    
1 28190U 04009A   21039.20766565 -.00000098  00000-0  00000-0 0  9993
2 28190  56.2267 353.4975 0087869 102.0986  76.5715  2.00570457123737
GPS BIIR-13 (PRN 02)    
1 28474U 04045A   21039.07503510 -.00000053  00000-0  00000-0 0  9993
2 28474  55.1196  43.3405 0205808 271.1772  87.6457  2.00571125119228
GPS BIIRM-1 (PRN 17)    
1 28874U 05038A   21038.68223856 -.00000096  00000-0  00000-0 0  9995
2 28874  56.3168 350.9240 0137755 269.3878 270.6686  2.00579098112610
GPS BIIRM-2 (PRN 31)    
1 29486U 06042A   21039.05125861  .00000081  00000-0  00000-0 0  9993
2 29486  54.8004 228.9653 0099308  12.6863 354.1706  2.00555985105216
GPS BIIRM-3 (PRN 12)    
1 29601U 06052A   21038.98381454 -.00000006  00000-0  00000-0 0  9994
2 29601  55.8637 291.5829 0081011  66.9204 293.9908  2.00577088104190
GPS BIIRM-4 (PRN 15)    
1 32260U 07047A   21038.80297059 -.00000024  00000-0  00000-0 0  9992
2 32260  53.2151 161.0407 0128674  54.7982 306.3627  2.00575845 97632
GPS BIIRM-5 (PRN 29)    
1 32384U 07062A   21039.28730391 -.00000098  00000-0  00000-0 0  9991
2 32384  56.4198 351.6018 0013050 129.3010 352.4528  2.00562454 96309
GPS BIIRM-6 (PRN 07)    
1 32711U 08012A   21039.20822096  .00000077  00000-0  00000-0 0  9993
2 32711  54.5510 228.0074 0145680 225.7754 133.0359  2.00571164 94569
GPS BIIRM-8 (PRN 05)    
1 35752U 09043A   21039.21122758 -.00000044  00000-0  00000-0 0  9990
2 35752  54.7251 105.4848 0058073  49.2555 334.2808  2.00547093 84157
GPS BIIF-1  (PRN 25)    
1 36585U 10022A   21039.20768433  .00000004  00000-0  00000-0 0  9994
2 36585  55.1372 287.4413 0095960  53.0721  75.5270  2.00563797 78389
GPS BIIF-2  (PRN 01)    
1 37753U 11036A   21037.91218778 -.00000043  00000-0  00000-0 0  9990
2 37753  56.3343  48.0595 0101785  45.9940 314.8862  2.00562082 70032
GPS BIIF-3  (PRN 24)    
1 38833U 12053A   21039.38825274  .00000069  00000-0  00000-0 0  9995
2 38833  53.5975 223.6189 0107526  40.8176 319.9907  2.00569681 60347
GPS BIIF-4  (PRN 27)    
1 39166U 13023A   21039.25345444 -.00000098  00000-0  00000-0 0  9998
2 39166  55.9664 347.4627 0089079  31.6302 328.8938  2.00563490 56677
GPS BIIF-5  (PRN 30)    
1 39533U 14008A   21038.75417148  .00000081  00000-0  00000-0 0  9996
2 39533  53.7055 229.1030 0049030 199.3502 160.4833  2.00554155 50481
GPS BIIF-6  (PRN 06)    
1 39741U 14026A   21039.03140194 -.00000045  00000-0  00000-0 0  9994
2 39741  56.3059  47.5427 0025078 295.3446  64.4343  2.00560313 49320
GPS BIIF-7  (PRN 09)    
1 40105U 14045A   21038.12249070 -.00000004  00000-0  00000-0 0  9998
2 40105  54.6124 166.5789 0017447 105.3481 254.8095  2.00575186 46873
GPS BIIF-8  (PRN 03)    
1 40294U 14068A   21038.99677805 -.00000044  00000-0  00000-0 0  9992
2 40294  55.4732 107.5216 0030831  46.0350 314.2692  2.00565255 45996
GPS BIIF-9  (PRN 26)    
1 40534U 15013A   21039.13260558  .00000007  00000-0  00000-0 0  9998
2 40534  54.0466 285.1487 0056450  13.0736 347.1372  2.00554029 42615
GPS BIIF-10 (PRN 08)    
1 40730U 15033A   21039.29860900 -.00000098  00000-0  00000-0 0  9993
2 40730  55.4773 346.5239 0061719 355.9396   4.0038  2.00578139 40782
GPS BIIF-11 (PRN 10)    
1 41019U 15062A   21039.34059489 -.00000042  00000-0  00000-0 0  9993
2 41019  55.4673 107.3398 0065796 212.9953 146.6436  2.00563806 38621
GPS BIIF-12 (PRN 32)    
1 41328U 16007A   21039.43231247 -.00000021  00000-0  00000-0 0  9997
2 41328  54.8425 167.0739 0047013 222.2784 137.3184  2.00567764 36680
GPS BIII-1  (PRN 04)    
1 43873U 18109A   21039.54494021 -.00000019  00000-0  00000-0 0  9999
2 43873  55.0239 169.3843 0011549 198.2422 139.6825  2.00572878 15901
GPS BIII-2  (PRN 18)    
1 44506U 19056A   21039.51351149 -.00000048  00000-0  00000-0 0  9997
2 44506  55.4002  48.7621 0011948 185.2563  26.1669  2.00562049 10861
GPS BIII-3  (PRN 23)    
1 45854U 20041A   21038.80366534 -.00000045  00000-0  00000-0 0  9992
2 45854  55.1797 106.0493 0009175 146.4683 213.6395  2.00567239  4815
